#dP2024 11 19  0  0  0.00000000      96 __u+U IGS20 FIT  IAC
## 2341 172800.00000000   900.00000000 60633 0.0000000000000
+   51   G02G03G04G05G06G07G08G09G10G11G12G13G14G15G16G17G18
+        G19G20G21G22G23G24G25G26G27G28G29G30G31G32R01R03R04
+        R05R07R08R09R11R12R14R15R16R17R18R19R20R21R22R24R26
+          0  0  0  0  0  0  0  0  0  0  0  0  0  0  0  0  0
+          0  0  0  0  0  0  0  0  0  0  0  0  0  0  0  0  0
++         5  7  6  6  6  5  6  6  6  5  7  6  7  6  7  6  7
++         5  7  5  5  7  5  6  7  7  6  6  5  6  6  8  7  7
++         7  6  7  7  5  8  6  7  6  5  7  6  7  6  6  7  7
++         0  0  0  0  0  0  0  0  0  0  0  0  0  0  0  0  0
++         0  0  0  0  0  0  0  0  0  0  0  0  0  0  0  0  0
%c M  cc GPS ccc cccc cccc cccc cccc ccccc ccccc ccccc ccccc
%c cc cc ccc ccc cccc cccc cccc cccc ccccc ccccc ccccc ccccc
%f  0.0000000  0.000000000  0.00000000000  0.000000000000000
%f  0.0000000  0.000000000  0.00000000000  0.000000000000000
%i    0    0    0    0      0      0      0      0         0
%i    0    0    0    0      0      0      0      0         0
/* INFORMATION & ANALYSIS CENTER (IAC)      ULTRA-RAPID DATA
/* S/V CLOCKS ARE ALIGNED TO GNSS TIME                      
/* G:C1WC2W R:C1PC2P E:C1XC5X C:C2IC6I J:C1CC2S             
/* PCV:IGS20_2317 OL/AL:FES2004  NONE     YN ORB:CoN CLK:CoN
*  2024 11 19  0  0  0.00000000
PG02  14260.783090 -20203.090735   9655.275691   -311.468308
PG03  16961.229664 -12390.192974 -16352.657448    603.480731
PG04   6791.689184 -15395.287131 -20499.268338    481.799185
PG05 -25994.753478   5176.310755   2019.355762   -193.422040
PG06  -9475.966336 -12624.866767 -21266.464244   -125.224299
PG07   4939.369042 -24745.407412   8029.630590    -19.373538
PG08  15409.189132  -4673.995289  21065.840825    417.188047
PG09  -2392.760516 -21363.931572 -15646.665254    449.840522
PG10  15943.805246  10862.784530  18630.321596   -201.074897
PG11 -16692.217499   1422.345831 -20555.340622   -750.615083
PG12 -20886.693107   9894.512832 -13331.500343   -552.973074
PG13 -17426.940397  -5136.417503  19224.834010    686.588417
PG14 -11983.385050 -13364.878846  19693.024065    542.677575
PG15 -14353.306649   7100.263002  20688.740773    229.417311
PG16  26697.787709   1355.704543  -2349.441839   -124.872793
PG17 -12964.589280 -23013.589911   1837.305230    553.365950
PG18  -4309.919963  24252.452881   9661.940446   -660.458485
PG19 -17427.228242 -18424.658190  -8737.183159    564.345745
PG20 -24615.142616   -129.292115  -9706.928535    368.619278
PG21  16036.885239 -14761.625229  14766.831634     97.124768
PG22 -18722.220173 -10792.173392  15628.341900    -80.431228
PG23    988.090255  14745.515139  22099.844218    366.096793
PG24 -14500.287205  19262.959015  10212.092118   -479.443912
PG25  -7436.463289  15604.106660 -20449.817491    498.900389
PG26  22602.276207   5826.932770 -13198.585829     21.449596
PG27  19508.909768   7108.255531  16504.986364    -34.677103
PG28   9124.761969  14704.092142 -20163.672124   -483.161136
PG29    -75.670073  21133.327538 -16054.724870   -562.741006
PG30  -4120.107568 -20411.040524  16484.966047   -279.105786
PG31  15355.289451   3515.708017 -21658.659765   -221.518205
PG32  16230.428302  21137.877668   -907.081467   -571.797573
PR01  22282.207062  11674.959399  -4214.562474    104.882315
PR03   2704.507636 -11012.062461 -22800.315958    111.645804
PR04 -12740.504041 -16780.430666 -14337.777901    264.612095
PR05 -21369.797502 -13782.646908   1800.796096    140.910412
PR07  -2210.331404  11338.298918  22784.901341     95.259466
PR08  13044.312534  16780.659054  14193.354523     -6.235435
PR09 -23072.775839  10468.610111   3330.771146    221.339321
PR11   -866.188735  12302.740648 -22322.791385      6.622227
PR12  17403.587268   1301.506625 -18588.643615     47.402342
PR14  15526.384508 -15186.036207  13370.590870     27.256276
PR15   -971.673849 -11692.599283  22663.606875     73.981892
PR16 -17243.404146  -1262.237169  18774.695505     30.910528
PR17   5654.314070 -23406.110411   8504.197945    141.091339
PR18  -1502.226028 -24171.982245  -7916.578251    172.564840
PR19  -7062.405463 -14791.399965 -19540.139352   -298.938288
PR20 -10753.011867   8117.048141 -21650.813964   -122.081774
PR21  -6218.924836  22845.476058  -9440.784173   -152.455502
PR22   1743.146337  23786.588100   9089.069414    -14.449004
PR24  10766.812134  -9090.849343  21292.747161    -80.671719
PR26  11725.561488  16495.108806  15533.733022   -133.426039
*  2024 11 19  0 15  0.00000000
PG02  14108.216912 -18996.745920  12160.323342   -311.460812
PG03  18687.376784 -12472.785111 -14242.108794    603.489661
PG04   8241.413471 -13485.572928 -21309.869228    481.804985
PG05 -26116.436035   4982.373947   -858.224409   -193.422834
PG06  -8462.093974 -14787.138249 -20271.018221   -125.250803
PG07   5488.404364 -25288.429069   5308.579452    -19.371564
PG08  16883.519039  -2796.347683  20298.321294    417.197126
PG09  -1078.461592 -20004.555214 -17497.218904    449.855878
PG10  13815.355791  11202.150456  20061.207252   -201.088049
PG11 -15729.355054   -782.584345 -21338.190289   -750.616331
PG12 -22247.750669   9771.205558 -10954.136218   -552.975426
PG13 -18378.071251  -7063.756094  17706.255056    686.589650
PG14  -9707.200509 -13706.443448  20668.570141    542.684795
PG15 -16065.429640   5360.727915  19972.873248    229.421649
PG16  26322.989212   1585.936617  -5137.814226   -124.863787
PG17 -12573.846766 -22880.415428   4683.433534    553.352987
PG18  -4890.626569  25038.603118   6983.792960   -660.458815
PG19 -17689.619842 -19225.142511  -6064.291644    564.349623
PG20 -23481.378925   -746.459271 -12169.528026    368.619176
PG21  15727.356183 -12991.956795  16779.404293     97.123683
PG22 -16890.158982 -11040.288771  17505.608243    -80.433849
PG23  -1485.753460  15107.272524  21805.412982    366.103935
PG24 -14403.362053  17843.590051  12587.346510   -479.441874
PG25  -9645.610483  15814.073439 -19290.320944    498.900150
PG26  21091.564330   6389.029425 -15267.137552     21.437672
PG27  20494.534561   8635.358904  14536.959640    -34.677013
PG28   8228.334815  16752.085135 -18911.903572   -483.171644
PG29  -1261.727936  19595.325863 -17869.686465   -562.738303
PG30  -3225.892802 -21954.515124  14547.031453   -279.098713
PG31  14372.092657   5745.564634 -21825.142602   -221.517757
PG32  16025.448062  21253.780175   1940.453108   -571.792720
PR01  22636.444562  11708.487630  -1021.228486    104.883373
PR03   5108.965334  -9495.530841 -23073.792591    111.646504
PR04 -11192.725984 -15630.107063 -16728.189287    264.613233
PR05 -21486.899654 -13641.647787  -1430.349734    140.911433
PR07  -4592.713404   9821.256394  23126.758973     95.260328
PR08  11512.677967  15668.253429  16592.608277     -6.235407
PR09 -22506.731638  10251.462830   6436.553840    221.340555
PR11  -3208.490799  13634.583822 -21314.308761      6.621529
PR12  15255.179002   2378.810535 -20288.446662     47.402271
PR14  16775.702126 -15987.070299  10647.440165     27.256745
PR15   1431.295878 -13020.849385  21901.262411     73.981647
PR16 -15078.496578  -2343.980213  20456.435283     30.911314
PR17   5432.791291 -22187.733417  11416.785358    141.094440
PR18  -1649.795804 -24970.884387  -4801.198358    172.566884
PR19  -6995.751446 -17090.309039 -17593.400124   -298.940512
PR20 -10447.242505   5393.877626 -22624.627293   -122.080781
PR21  -5978.809960  21510.657507 -12299.220879   -152.458779
PR22   1810.150233  24724.412786   6057.765149    -14.459777
PR24  10612.764212  -6410.082197  22320.340145    -80.673177
PR26  10040.687045  15316.522473  17764.449987   -133.425942
EOF
